ONEWEB-0647             
1 56079U 23043AK  23249.82382118  .00001244  00000+0  32703-2 0  9999
2 56079  87.8963 101.2096 0001809 102.8202 257.3130 13.15546979 23053
ONEWEB-0651             
1 56080U 23043AL  23249.81959590  .00000130  00000+0  31111-3 0  9990
2 56080  87.9066 101.1815 0001248  94.0770 266.0503 13.15547012 24250
ONEWEB-0718             
1 56081U 23043AM  23249.89141718  .00000155  00000+0  37799-3 0  9999
2 56081  87.8888 101.2154 0002020  64.0606 296.0732 13.15543589 23074
GSLV R/B                
1 56082U 23043AN  23249.60883141  .00023680  00000+0  49785-3 0  9998
2 56082  87.4089  84.2776 0024092 104.7126 255.6805 15.44870734 25338
ONEWEB-0561             
1 56710U 23068A   23249.88300400  .00000075  00000+0  12331-3 0  9995
2 56710  87.9671 109.7175 0002148 101.8874 258.2508 13.34311974 15342
ONEWEB-0668             
1 56711U 23068B   23249.83454642  .00001444  00000+0  19444-3 0  9992
2 56711  86.7187  95.5647 0014306 192.1843 167.9034 14.78428118 16301
ONEWEB-0676             
1 56712U 23068C   23249.57434909  .00001523  00000+0  20593-3 0  9993
2 56712  86.7146  95.6225 0014133 195.3087 164.7708 14.78308611 16266
ONEWEB-0677             
1 56713U 23068D   23249.88884151  .00000023  00000+0  19010-4 0  9993
2 56713  87.9593 107.5665 0001390  78.2152 281.9145 13.34756879 15529
